QIANFAN 18G             
1 66039U 25233G   25305.63682458  .00000739  00000+0  30238-3 0  9993
2 66039  88.9947  66.7621 0015246 164.1643 196.0030 14.26156943  2183
QIANFAN 18H             
1 66040U 25233H   25305.63662444  .00000741  00000+0  30331-3 0  9995
2 66040  88.9947  66.7622 0014908 162.7430 197.4273 14.26178454  2183
QIANFAN 18J             
1 66041U 25233J   25305.63652876  .00000730  00000+0  29847-3 0  9992
2 66041  88.9946  66.7621 0015043 161.9371 198.2361 14.26193832  2182
QIANFAN 18K             
1 66042U 25233K   25305.63648973  .00000737  00000+0  30142-3 0  9993
2 66042  88.9947  66.7622 0015482 163.6750 196.4945 14.26209539  2182
QIANFAN 18L             
1 66043U 25233L   25305.63501181  .00000582  00000+0  23482-3 0  9990
2 66043  88.9947  66.7619 0015411 161.9413 198.2332 14.26632123  2187
QIANFAN 18M             
1 66044U 25233M   25305.63639358  .00000770  00000+0  31509-3 0  9997
2 66044  88.9946  66.7620 0015853 163.7569 196.4136 14.26213633  2184
QIANFAN 18N             
1 66045U 25233N   25305.63616638  .00000754  00000+0  30815-3 0  9995
2 66045  88.9947  66.7622 0015241 162.5312 197.6409 14.26242734  2182
QIANFAN 18P             
1 66046U 25233P   25305.63599723  .00000762  00000+0  31166-3 0  9990
2 66046  88.9947  66.7622 0015223 164.7800 195.3855 14.26263496  2187
